<?xml version="1.0" encoding="utf-8" ?>
<kml xmlns="http://www.opengis.net/kml/2.2">
<Document id="root_doc">
<Schema name="core_arthropod_locations" id="core_arthropod_locations">
	<SimpleField name="site_code" type="string"></SimpleField>
	<SimpleField name="location" type="string"></SimpleField>
	<SimpleField name="gps_date" type="string"></SimpleField>
	<SimpleField name="start_date" type="string"></SimpleField>
	<SimpleField name="end_date" type="string"></SimpleField>
	<SimpleField name="num_traps" type="float"></SimpleField>
	<SimpleField name="trap_arrange" type="string"></SimpleField>
	<SimpleField name="comments" type="string"></SimpleField>
</Schema>
<Folder><name>core_arthropod_locations</name>
  <Placemark>
	<ExtendedData><SchemaData schemaUrl="#core_arthropod_locations">
		<SimpleData name="site_code">AA-17</SimpleData>
		<SimpleData name="location">Stapley and McKellips</SimpleData>
		<SimpleData name="gps_date">2007-10-11</SimpleData>
		<SimpleData name="start_date">2002-06-23</SimpleData>
		<SimpleData name="num_traps">10</SimpleData>
		<SimpleData name="comments">commerce</SimpleData>
	</SchemaData></ExtendedData>
      <Point><coordinates>-111.801202844851005,33.452022655231097</coordinates></Point>
  </Placemark>
  <Placemark>
	<ExtendedData><SchemaData schemaUrl="#core_arthropod_locations">
		<SimpleData name="site_code">AB-19</SimpleData>
		<SimpleData name="location">Lindsay and Elliot</SimpleData>
		<SimpleData name="start_date">2002-06-10</SimpleData>
		<SimpleData name="num_traps">10</SimpleData>
		<SimpleData name="comments">resident</SimpleData>
	</SchemaData></ExtendedData>
      <Point><coordinates>-111.773602410907998,33.351621933087102</coordinates></Point>
  </Placemark>
  <Placemark>
	<ExtendedData><SchemaData schemaUrl="#core_arthropod_locations">
		<SimpleData name="site_code">AC-16</SimpleData>
		<SimpleData name="location">Higley and Thomas</SimpleData>
		<SimpleData name="gps_date">2007-10-11</SimpleData>
		<SimpleData name="start_date">2002-06-18</SimpleData>
		<SimpleData name="num_traps">10</SimpleData>
		<SimpleData name="comments">commerce</SimpleData>
	</SchemaData></ExtendedData>
      <Point><coordinates>-111.719405377249998,33.479623052604701</coordinates></Point>
  </Placemark>
  <Placemark>
	<ExtendedData><SchemaData schemaUrl="#core_arthropod_locations">
		<SimpleData name="site_code">AC-20</SimpleData>
		<SimpleData name="gps_date">2007-10-16</SimpleData>
		<SimpleData name="start_date">2004-11-08</SimpleData>
	</SchemaData></ExtendedData>
      <Point><coordinates>-111.723026646088002,33.343071472501698</coordinates></Point>
  </Placemark>
  <Placemark>
	<ExtendedData><SchemaData schemaUrl="#core_arthropod_locations">
		<SimpleData name="site_code">AD-10</SimpleData>
		<SimpleData name="location">Mcdowell Mountain Road</SimpleData>
		<SimpleData name="start_date">2002-06-18</SimpleData>
		<SimpleData name="num_traps">10</SimpleData>
		<SimpleData name="comments">desert</SimpleData>
	</SchemaData></ExtendedData>
      <Point><coordinates>-111.711467800823996,33.6768121826018</coordinates></Point>
  </Placemark>
  <Placemark>
	<ExtendedData><SchemaData schemaUrl="#core_arthropod_locations">
		<SimpleData name="site_code">ADODAM</SimpleData>
		<SimpleData name="location">Phoenix, off 35th Ave.  N of Deer Valley Rd.</SimpleData>
		<SimpleData name="gps_date">2007-10-22</SimpleData>
		<SimpleData name="start_date">1998-05-04</SimpleData>
		<SimpleData name="end_date">2016-11-03</SimpleData>
		<SimpleData name="num_traps">21</SimpleData>
		<SimpleData name="trap_arrange">cross with 1 central trap (C) and 5 traps per 4 arms (N1-5, S1-5, E1-5, W1-5)</SimpleData>
		<SimpleData name="comments">reduced to 10 traps, Mar. 1999 (C, N1-5, S1-4)
renumbered: S1-4=1-4, C=5, N1-5=6-10</SimpleData>
	</SchemaData></ExtendedData>
      <Point><coordinates>-112.139458178184,33.690745048335998</coordinates></Point>
  </Placemark>
  <Placemark>
	<ExtendedData><SchemaData schemaUrl="#core_arthropod_locations">
		<SimpleData name="site_code">AF-12</SimpleData>
		<SimpleData name="location">Beeline Highway and Fort McDowell</SimpleData>
		<SimpleData name="start_date">2002-06-18</SimpleData>
		<SimpleData name="num_traps">10</SimpleData>
		<SimpleData name="comments">desert</SimpleData>
	</SchemaData></ExtendedData>
      <Point><coordinates>-111.622250905325998,33.610110787603197</coordinates></Point>
  </Placemark>
  <Placemark>
	<ExtendedData><SchemaData schemaUrl="#core_arthropod_locations">
		<SimpleData name="location">SE corner of 202 and Dobson Rd., Mesa</SimpleData>
		<SimpleData name="start_date">1998-06-18</SimpleData>
		<SimpleData name="end_date">2001-09-03</SimpleData>
		<SimpleData name="num_traps">22</SimpleData>
		<SimpleData name="trap_arrange">two parallel lines (N1-11,S1-11)</SimpleData>
		<SimpleData name="comments">reduced to 10 traps, Mar. 1999 (N1-10)
N1-10=1-10</SimpleData>
	</SchemaData></ExtendedData>
      <Point><coordinates>-111.867874714617002,33.434656970887602</coordinates></Point>
  </Placemark>
  <Placemark>
	<ExtendedData><SchemaData schemaUrl="#core_arthropod_locations">
		<SimpleData name="location">alfalfa: SE corner of 91st Ave. and Northern Ave.</SimpleData>
		<SimpleData name="start_date">1999-06-18</SimpleData>
		<SimpleData name="end_date">2001-11-26</SimpleData>
		<SimpleData name="num_traps">10</SimpleData>
		<SimpleData name="trap_arrange">line transect (1-10), runs N-S parallel to burm</SimpleData>
		<SimpleData name="comments">Replaced old NW ag site (COTPEO) in June 1999.</SimpleData>
	</SchemaData></ExtendedData>
      <Point><coordinates>-112.254054623254007,33.551175701437103</coordinates></Point>
  </Placemark>
  <Placemark>
	<ExtendedData><SchemaData schemaUrl="#core_arthropod_locations">
		<SimpleData name="location">SE corner of Chandler Blvd. And 56th St., Chandler</SimpleData>
		<SimpleData name="start_date">1998-06-11</SimpleData>
		<SimpleData name="end_date">2001-08-27</SimpleData>
		<SimpleData name="num_traps">20</SimpleData>
		<SimpleData name="trap_arrange">two parallel lines of ten traps each (E1-10, W1-10)</SimpleData>
		<SimpleData name="comments">reduced to 10 traps, Mar. 1999 (W1-10)
W1-10=1-10</SimpleData>
	</SchemaData></ExtendedData>
      <Point><coordinates>-111.961860676849,33.302827914549802</coordinates></Point>
  </Placemark>
  <Placemark>
	<ExtendedData><SchemaData schemaUrl="#core_arthropod_locations">
		<SimpleData name="site_code">ALFPOW</SimpleData>
		<SimpleData name="location">SW corner of Power Rd. and Elliot Rd., Gilbert</SimpleData>
		<SimpleData name="gps_date">2007-10-16</SimpleData>
		<SimpleData name="start_date">1998-06-03</SimpleData>
		<SimpleData name="end_date">2015-02-06</SimpleData>
		<SimpleData name="num_traps">20</SimpleData>
		<SimpleData name="trap_arrange">two parallel lines of ten traps each (E1-10 with no E6, W1-11)</SimpleData>
		<SimpleData name="comments">reduced to 10 traps, Mar. 1999 (W1-10)
W1-10=1-10</SimpleData>
	</SchemaData></ExtendedData>
      <Point><coordinates>-111.700172246776006,33.350110928321499</coordinates></Point>
  </Placemark>
  <Placemark>
	<ExtendedData><SchemaData schemaUrl="#core_arthropod_locations">
		<SimpleData name="location">704 E. Erie Dr., Tempe</SimpleData>
		<SimpleData name="start_date">1999-06-04</SimpleData>
		<SimpleData name="end_date">2001-11-05</SimpleData>
		<SimpleData name="num_traps">10</SimpleData>
		<SimpleData name="trap_arrange">5 per side of front walk, block-style</SimpleData>
		<SimpleData name="comments">Effective June 1999.</SimpleData>
	</SchemaData></ExtendedData>
      <Point><coordinates>-111.928658681889004,33.396267655861202</coordinates></Point>
  </Placemark>
  <Placemark>
	<ExtendedData><SchemaData schemaUrl="#core_arthropod_locations">
		<SimpleData name="location">550 W. 17th St., Tempe</SimpleData>
		<SimpleData name="start_date">1999-06-10</SimpleData>
		<SimpleData name="end_date">2001-08-27</SimpleData>
		<SimpleData name="num_traps">10</SimpleData>
		<SimpleData name="trap_arrange">5 in front yard (around perimeter), 5 in back yard (around perimeter)</SimpleData>
		<SimpleData name="comments">Effective June 1999.</SimpleData>
	</SchemaData></ExtendedData>
      <Point><coordinates>-111.946111080831997,33.411133574811501</coordinates></Point>
  </Placemark>
  <Placemark>
	<ExtendedData><SchemaData schemaUrl="#core_arthropod_locations">
		<SimpleData name="location">4525 E. Douglas Ave., Higley</SimpleData>
		<SimpleData name="start_date">1998-06-03</SimpleData>
		<SimpleData name="end_date">2002-04-14</SimpleData>
		<SimpleData name="num_traps">11</SimpleData>
		<SimpleData name="trap_arrange">partial square, 3 sides; one side with 4 traps, another with 2, third with 5 (CW1-11)</SimpleData>
		<SimpleData name="comments">reduced to 10 traps, Mar. 1999 (1-10)</SimpleData>
	</SchemaData></ExtendedData>
      <Point><coordinates>-111.688724182306999,33.365293294563202</coordinates></Point>
  </Placemark>
  <Placemark>
	<ExtendedData><SchemaData schemaUrl="#core_arthropod_locations">
		<SimpleData name="location">1199 W. Jeanine Rd., Tempe</SimpleData>
		<SimpleData name="start_date">1998-06-25</SimpleData>
		<SimpleData name="end_date">2001-02-12</SimpleData>
		<SimpleData name="trap_arrange">L-shaped design of 7+3 (CS1-10)</SimpleData>
	</SchemaData></ExtendedData>
      <Point><coordinates>-111.959270344996995,33.327857079309503</coordinates></Point>
  </Placemark>
  <Placemark>
	<ExtendedData><SchemaData schemaUrl="#core_arthropod_locations">
		<SimpleData name="location">cotton: 83rd Ave. directly NE of Thunderbird Rd. junction, Peoria</SimpleData>
		<SimpleData name="start_date">1998-06-25</SimpleData>
		<SimpleData name="end_date">1999-07-16</SimpleData>
		<SimpleData name="num_traps">20</SimpleData>
		<SimpleData name="trap_arrange">cotton, June 1998-May 1999: two parallel lines of 10 traps ea. (W1-10, E1-10)</SimpleData>
		<SimpleData name="comments">Cotton harvested and stalks plowed under in Oct. 1998.
Reduced to 10 traps, Mar. 1999 (W1-10).  Site deleted at end of May 1999.  New NW ag site established June 1999: alfalfa at 91st and Northern (ALF91).</SimpleData>
	</SchemaData></ExtendedData>
      <Point><coordinates>-112.238030262644003,33.610991702568903</coordinates></Point>
  </Placemark>
  <Placemark>
	<ExtendedData><SchemaData schemaUrl="#core_arthropod_locations">
		<SimpleData name="site_code">DBG</SimpleData>
		<SimpleData name="location">1201 N. Galvin Pkwy., Phoenix, near back 
parking lot</SimpleData>
		<SimpleData name="start_date">1998-04-23</SimpleData>
		<SimpleData name="num_traps">21</SimpleData>
		<SimpleData name="trap_arrange">cross; one central trap (C) and four arms of 5 traps ea. (N1-5,S1-5,E1-5,W1-5)</SimpleData>
		<SimpleData name="comments">reduced to 10 traps, Mar. 1999 (C, N1-5, S1-4); 
renumbered: S1-4=1-4, C=5, N1-5=6-10</SimpleData>
	</SchemaData></ExtendedData>
      <Point><coordinates>-111.94228242474,33.463724783926601</coordinates></Point>
  </Placemark>
  <Placemark>
	<ExtendedData><SchemaData schemaUrl="#core_arthropod_locations">
		<SimpleData name="site_code">DREAMY</SimpleData>
		<SimpleData name="location">Just E of picnic ramadas, about 100 m to R of concrete bike trail, in revegetation area.</SimpleData>
		<SimpleData name="start_date">1999-06-25</SimpleData>
		<SimpleData name="num_traps">10</SimpleData>
		<SimpleData name="trap_arrange">line transect</SimpleData>
		<SimpleData name="comments">Effective June 1999.</SimpleData>
	</SchemaData></ExtendedData>
      <Point><coordinates>-112.027386072921999,33.563909538774702</coordinates></Point>
  </Placemark>
  <Placemark>
	<ExtendedData><SchemaData schemaUrl="#core_arthropod_locations">
		<SimpleData name="site_code">DUNCAN</SimpleData>
		<SimpleData name="gps_date">2000-10-27</SimpleData>
		<SimpleData name="start_date">2005-01-24</SimpleData>
	</SchemaData></ExtendedData>
      <Point><coordinates>-112.428709461105001,33.493004939285797</coordinates></Point>
  </Placemark>
  <Placemark>
	<ExtendedData><SchemaData schemaUrl="#core_arthropod_locations">
		<SimpleData name="location">About 20 m along trail at rodeo, traps to L.</SimpleData>
		<SimpleData name="start_date">1999-06-18</SimpleData>
		<SimpleData name="end_date">2002-04-22</SimpleData>
		<SimpleData name="num_traps">10</SimpleData>
		<SimpleData name="trap_arrange">line transect</SimpleData>
		<SimpleData name="comments">Effective June 1999.</SimpleData>
	</SchemaData></ExtendedData>
      <Point><coordinates>-112.369063512853998,33.3693829136961</coordinates></Point>
  </Placemark>
  <Placemark>
	<ExtendedData><SchemaData schemaUrl="#core_arthropod_locations">
		<SimpleData name="location">Union Hills Dr., Phoenix; both lines arranged N/S to W of bldg</SimpleData>
		<SimpleData name="start_date">1998-06-25</SimpleData>
		<SimpleData name="end_date">2002-04-22</SimpleData>
		<SimpleData name="num_traps">20</SimpleData>
		<SimpleData name="trap_arrange">two lines of 10 traps ea. (N1-10, S1-10)</SimpleData>
		<SimpleData name="comments">reduced to 10 traps, Mar. 1999 (N1-10)
N1-10=1-10</SimpleData>
	</SchemaData></ExtendedData>
      <Point><coordinates>-112.111653652011995,33.658742664833703</coordinates></Point>
  </Placemark>
  <Placemark>
	<ExtendedData><SchemaData schemaUrl="#core_arthropod_locations">
		<SimpleData name="site_code">I-17</SimpleData>
		<SimpleData name="location">Miller Road and I-10</SimpleData>
		<SimpleData name="start_date">2002-04-29</SimpleData>
		<SimpleData name="num_traps">10</SimpleData>
		<SimpleData name="comments">desert</SimpleData>
	</SchemaData></ExtendedData>
      <Point><coordinates>-112.577118210717003,33.440738540179197</coordinates></Point>
  </Placemark>
  <Placemark>
	<ExtendedData><SchemaData schemaUrl="#core_arthropod_locations">
		<SimpleData name="location">6820 S. Harl Ave., Tempe; one line of traps E of bldg, other line in median of parking lot near covered spaces to S of bldg</SimpleData>
		<SimpleData name="start_date">1998-06-03</SimpleData>
		<SimpleData name="end_date">2002-04-01</SimpleData>
		<SimpleData name="num_traps">20</SimpleData>
		<SimpleData name="trap_arrange">two lines of 10 traps each (E 1-10, W 1-10)</SimpleData>
		<SimpleData name="comments">reduced to 10 traps, Mar. 1999 (E1-10)
E1-10=1-10</SimpleData>
	</SchemaData></ExtendedData>
      <Point><coordinates>-111.967933959926,33.356840390735499</coordinates></Point>
  </Placemark>
  <Placemark>
	<ExtendedData><SchemaData schemaUrl="#core_arthropod_locations">
		<SimpleData name="location">3002 W. Hearn Rd., Phoenix</SimpleData>
		<SimpleData name="start_date">1998-06-25</SimpleData>
		<SimpleData name="end_date">2002-04-22</SimpleData>
		<SimpleData name="num_traps">15</SimpleData>
		<SimpleData name="trap_arrange">two crosses (one in front yard with 7 traps, one in back with 8 traps) (JN N1-8, S1-7)</SimpleData>
		<SimpleData name="comments">reduced to 10 traps, Mar. 1999 (N4-8,S2,S4-7)
renumbered: S4-7=1-4, S2=5, N4-8=6-10</SimpleData>
	</SchemaData></ExtendedData>
      <Point><coordinates>-112.121587195643002,33.614867723977703</coordinates></Point>
  </Placemark>
  <Placemark>
	<ExtendedData><SchemaData schemaUrl="#core_arthropod_locations">
		<SimpleData name="site_code">L-7</SimpleData>
		<SimpleData name="location">203rd Avenue &amp; Dove Valley</SimpleData>
		<SimpleData name="gps_date">2007-10-23</SimpleData>
		<SimpleData name="start_date">2002-04-29</SimpleData>
		<SimpleData name="num_traps">10</SimpleData>
		<SimpleData name="comments">Desert</SimpleData>
	</SchemaData></ExtendedData>
      <Point><coordinates>-112.452132617253994,33.781062803878399</coordinates></Point>
  </Placemark>
  <Placemark>
	<ExtendedData><SchemaData schemaUrl="#core_arthropod_locations">
		<SimpleData name="site_code">M-16</SimpleData>
		<SimpleData name="location">Thomas and Citrus</SimpleData>
		<SimpleData name="gps_date">2007-11-02</SimpleData>
		<SimpleData name="start_date">2004-10-25</SimpleData>
		<SimpleData name="end_date">2016-11-03</SimpleData>
		<SimpleData name="num_traps">10</SimpleData>
		<SimpleData name="trap_arrange"></SimpleData>
		<SimpleData name="comments"></SimpleData>
	</SchemaData></ExtendedData>
      <Point><coordinates>-112.443900947876998,33.486712525050898</coordinates></Point>
  </Placemark>
  <Placemark>
	<ExtendedData><SchemaData schemaUrl="#core_arthropod_locations">
		<SimpleData name="location">Take Lousley Hill trailhead until trail forks just past wash.  Take L fork.  Traps on L of trail, between trail and wash.  First trap located between live and dead ironwood trees.</SimpleData>
		<SimpleData name="start_date">1999-06-17</SimpleData>
		<SimpleData name="end_date">2002-04-15</SimpleData>
		<SimpleData name="num_traps">10</SimpleData>
		<SimpleData name="trap_arrange">line transect</SimpleData>
		<SimpleData name="comments">Effective June 1999.</SimpleData>
	</SchemaData></ExtendedData>
      <Point><coordinates>-111.700299569156996,33.708426078459098</coordinates></Point>
  </Placemark>
  <Placemark>
	<ExtendedData><SchemaData schemaUrl="#core_arthropod_locations">
		<SimpleData name="location">Higley and Warner</SimpleData>
		<SimpleData name="start_date">2002-06-25</SimpleData>
		<SimpleData name="num_traps">10</SimpleData>
		<SimpleData name="comments">Agriculture</SimpleData>
	</SchemaData></ExtendedData>
      <Point><coordinates>-111.723830114628001,33.334972541226797</coordinates></Point>
  </Placemark>
  <Placemark>
	<ExtendedData><SchemaData schemaUrl="#core_arthropod_locations">
		<SimpleData name="location">NW corner of property</SimpleData>
		<SimpleData name="start_date">1999-06-17</SimpleData>
		<SimpleData name="end_date">2002-04-14</SimpleData>
		<SimpleData name="num_traps">10</SimpleData>
		<SimpleData name="trap_arrange">line transect</SimpleData>
		<SimpleData name="comments">Effective June 1999.</SimpleData>
	</SchemaData></ExtendedData>
      <Point><coordinates>-111.688043767690004,33.4113135318511</coordinates></Point>
  </Placemark>
  <Placemark>
	<ExtendedData><SchemaData schemaUrl="#core_arthropod_locations">
		<SimpleData name="location">Fairbrook Circle, Mesa</SimpleData>
		<SimpleData name="start_date">1999-06-16</SimpleData>
		<SimpleData name="end_date">2001-08-07</SimpleData>
		<SimpleData name="num_traps">10</SimpleData>
		<SimpleData name="trap_arrange">line transect in backyard, following perimeter</SimpleData>
		<SimpleData name="comments">Effective June 1999.</SimpleData>
	</SchemaData></ExtendedData>
      <Point><coordinates>-111.723149286644002,33.437138632600799</coordinates></Point>
  </Placemark>
  <Placemark>
	<ExtendedData><SchemaData schemaUrl="#core_arthropod_locations">
		<SimpleData name="site_code">NDV-C</SimpleData>
		<SimpleData name="location">E. Thunderbolt Ave</SimpleData>
		<SimpleData name="gps_date">2007-10-16</SimpleData>
		<SimpleData name="start_date">2004-02-08</SimpleData>
	</SchemaData></ExtendedData>
      <Point><coordinates>-111.677617865111998,33.312190485195302</coordinates></Point>
  </Placemark>
  <Placemark>
	<ExtendedData><SchemaData schemaUrl="#core_arthropod_locations">
		<SimpleData name="site_code">NDV-M</SimpleData>
		<SimpleData name="location">E. Tillman Ave</SimpleData>
		<SimpleData name="gps_date">2007-10-16</SimpleData>
		<SimpleData name="start_date">2004-01-05</SimpleData>
		<SimpleData name="end_date">2016-11-04</SimpleData>
		<SimpleData name="num_traps">12</SimpleData>
		<SimpleData name="trap_arrange"></SimpleData>
		<SimpleData name="comments"></SimpleData>
	</SchemaData></ExtendedData>
      <Point><coordinates>-111.680832479084998,33.310747776505401</coordinates></Point>
  </Placemark>
  <Placemark>
	<ExtendedData><SchemaData schemaUrl="#core_arthropod_locations">
		<SimpleData name="site_code">NDV-N</SimpleData>
		<SimpleData name="location">E. Truitt Ave.</SimpleData>
		<SimpleData name="gps_date">2007-10-16</SimpleData>
		<SimpleData name="start_date">2004-01-05</SimpleData>
	</SchemaData></ExtendedData>
      <Point><coordinates>-111.680826770753995,33.314183963914203</coordinates></Point>
  </Placemark>
  <Placemark>
	<ExtendedData><SchemaData schemaUrl="#core_arthropod_locations">
		<SimpleData name="site_code">NDV-O</SimpleData>
		<SimpleData name="location">S. Sterling Ave.</SimpleData>
		<SimpleData name="gps_date">2007-10-16</SimpleData>
		<SimpleData name="start_date">2004-01-05</SimpleData>
	</SchemaData></ExtendedData>
      <Point><coordinates>-111.678497921548995,33.311587523316298</coordinates></Point>
  </Placemark>
  <Placemark>
	<ExtendedData><SchemaData schemaUrl="#core_arthropod_locations">
		<SimpleData name="site_code">NDV-X</SimpleData>
		<SimpleData name="location">E. Thunderbolt Ave.</SimpleData>
		<SimpleData name="gps_date">2007-10-16</SimpleData>
		<SimpleData name="start_date">2004-01-05</SimpleData>
	</SchemaData></ExtendedData>
      <Point><coordinates>-111.680904485973002,33.3123016229478</coordinates></Point>
  </Placemark>
  <Placemark>
	<ExtendedData><SchemaData schemaUrl="#core_arthropod_locations">
		<SimpleData name="location">323 E. Solana Dr., Tempe</SimpleData>
		<SimpleData name="start_date">1999-06-10</SimpleData>
		<SimpleData name="end_date">2002-04-01</SimpleData>
		<SimpleData name="num_traps">10</SimpleData>
		<SimpleData name="trap_arrange">along perimeter of lawn in backyard</SimpleData>
		<SimpleData name="comments">Effective June 1999.</SimpleData>
	</SchemaData></ExtendedData>
      <Point><coordinates>-111.933062724397004,33.408584512757002</coordinates></Point>
  </Placemark>
  <Placemark>
	<ExtendedData><SchemaData schemaUrl="#core_arthropod_locations">
		<SimpleData name="location">About 100 m to R of Trail 14B just past 100/14B split and guardrail.</SimpleData>
		<SimpleData name="start_date">1999-06-25</SimpleData>
		<SimpleData name="end_date">2002-04-15</SimpleData>
		<SimpleData name="num_traps">10</SimpleData>
		<SimpleData name="trap_arrange">line transect</SimpleData>
		<SimpleData name="comments">Effective June 1999.</SimpleData>
	</SchemaData></ExtendedData>
      <Point><coordinates>-112.070330684037003,33.598825621170398</coordinates></Point>
  </Placemark>
  <Placemark>
	<ExtendedData><SchemaData schemaUrl="#core_arthropod_locations">
		<SimpleData name="site_code">O-9</SimpleData>
		<SimpleData name="location">163rd Avenue &amp; Jomax</SimpleData>
		<SimpleData name="start_date">2002-05-08</SimpleData>
		<SimpleData name="num_traps">10</SimpleData>
		<SimpleData name="comments">Desert</SimpleData>
	</SchemaData></ExtendedData>
      <Point><coordinates>-112.356972687368,33.706107764442798</coordinates></Point>
  </Placemark>
  <Placemark>
	<ExtendedData><SchemaData schemaUrl="#core_arthropod_locations">
		<SimpleData name="location">corner of McClintock and University Rd., Tempe; one line of traps in front of solar panels, other line near UofA halophyte/revegetation area</SimpleData>
		<SimpleData name="start_date">1998-06-18</SimpleData>
		<SimpleData name="end_date">2002-04-15</SimpleData>
		<SimpleData name="num_traps">20</SimpleData>
		<SimpleData name="trap_arrange">two lines of 10 traps ea. (S1-10, N1-10)</SimpleData>
		<SimpleData name="comments">reduced to 10 traps, Mar. 1999 (N1-10)
N1-10=1-10
Trap 1 moved in June 1999 (too near pond), placed at end of line after trap 10.</SimpleData>
	</SchemaData></ExtendedData>
      <Point><coordinates>-111.915134821055005,33.426230914709599</coordinates></Point>
  </Placemark>
  <Placemark>
	<ExtendedData><SchemaData schemaUrl="#core_arthropod_locations">
		<SimpleData name="site_code">P-18</SimpleData>
		<SimpleData name="location">107th Ave and Broadway</SimpleData>
		<SimpleData name="gps_date">2007-11-02</SimpleData>
		<SimpleData name="start_date">2002-10-07</SimpleData>
		<SimpleData name="num_traps">10</SimpleData>
		<SimpleData name="comments">Agriculture</SimpleData>
	</SchemaData></ExtendedData>
      <Point><coordinates>-112.28979604125,33.411594809025701</coordinates></Point>
  </Placemark>
  <Placemark>
	<ExtendedData><SchemaData schemaUrl="#core_arthropod_locations">
		<SimpleData name="site_code">Q-16</SimpleData>
		<SimpleData name="location">Thomas and 95th Ave</SimpleData>
		<SimpleData name="gps_date">2007-11-02</SimpleData>
		<SimpleData name="start_date">2004-10-25</SimpleData>
		<SimpleData name="end_date">2016-11-03</SimpleData>
		<SimpleData name="num_traps">10</SimpleData>
		<SimpleData name="trap_arrange"></SimpleData>
		<SimpleData name="comments"></SimpleData>
	</SchemaData></ExtendedData>
      <Point><coordinates>-112.264962475768002,33.478733255307198</coordinates></Point>
  </Placemark>
  <Placemark>
	<ExtendedData><SchemaData schemaUrl="#core_arthropod_locations">
		<SimpleData name="site_code">Q-7</SimpleData>
		<SimpleData name="location">Lake Pleasant &amp; Carefree Hwy.</SimpleData>
		<SimpleData name="gps_date">2007-10-23</SimpleData>
		<SimpleData name="start_date">2002-06-02</SimpleData>
		<SimpleData name="num_traps">10</SimpleData>
		<SimpleData name="comments">Desert</SimpleData>
	</SchemaData></ExtendedData>
      <Point><coordinates>-112.250027706237006,33.784243424910699</coordinates></Point>
  </Placemark>
  <Placemark>
	<ExtendedData><SchemaData schemaUrl="#core_arthropod_locations">
		<SimpleData name="location">515 W. 19th St., Tempe</SimpleData>
		<SimpleData name="start_date">1998-06-11</SimpleData>
		<SimpleData name="end_date">2001-11-26</SimpleData>
		<SimpleData name="num_traps">12</SimpleData>
		<SimpleData name="trap_arrange">cross with no central trap, 4 arms of 3 traps each  (RW1-12)</SimpleData>
		<SimpleData name="comments">reduced to 10 traps, Mar. 1999 (1-10).
Site deleted at end of May 1999.</SimpleData>
	</SchemaData></ExtendedData>
      <Point><coordinates>-111.944670555586995,33.408612643541602</coordinates></Point>
  </Placemark>
  <Placemark>
	<ExtendedData><SchemaData schemaUrl="#core_arthropod_locations">
		<SimpleData name="location">18878 N. 69th Ave., Glendale</SimpleData>
		<SimpleData name="start_date">1999-06-18</SimpleData>
		<SimpleData name="end_date">2002-04-22</SimpleData>
		<SimpleData name="num_traps">10</SimpleData>
		<SimpleData name="trap_arrange">all traps in front yard (2 in raised flowerbed)</SimpleData>
		<SimpleData name="comments">Effective June 1999.</SimpleData>
	</SchemaData></ExtendedData>
      <Point><coordinates>-112.207862007252999,33.655552805788197</coordinates></Point>
  </Placemark>
  <Placemark>
	<ExtendedData><SchemaData schemaUrl="#core_arthropod_locations">
		<SimpleData name="site_code">S-17</SimpleData>
		<SimpleData name="gps_date">2007-11-02</SimpleData>
		<SimpleData name="start_date">2004-10-25</SimpleData>
	</SchemaData></ExtendedData>
      <Point><coordinates>-112.182052366410005,33.421968963746401</coordinates></Point>
  </Placemark>
  <Placemark>
	<ExtendedData><SchemaData schemaUrl="#core_arthropod_locations">
		<SimpleData name="start_date">1999-02-15</SimpleData>
	</SchemaData></ExtendedData>
      <Point><coordinates>-112.015032812789997,33.334346985904297</coordinates></Point>
  </Placemark>
  <Placemark>
	<ExtendedData><SchemaData schemaUrl="#core_arthropod_locations">
		<SimpleData name="location">OLD: to S beside end of Pima Canyon Rd., Phoenix: NEW: along trail at utility box on Warpaint Rd.</SimpleData>
		<SimpleData name="start_date">1998-04-23</SimpleData>
		<SimpleData name="end_date">2002-02-13</SimpleData>
		<SimpleData name="num_traps">21</SimpleData>
		<SimpleData name="trap_arrange">OLD: cross with a central trap (C) and 5 traps ea. on 4 arms (N1-5,S1-5,E1-5,W1-5); NEW: 1-10</SimpleData>
		<SimpleData name="comments">Reduced to 10 traps, Mar. 1999 (N1-4,C,S1-5).  Changed location of traps at end of May 1999 from OLD to NEW.  NEW effective June 1999.</SimpleData>
	</SchemaData></ExtendedData>
      <Point><coordinates>-112.004250130260999,33.3593384212747</coordinates></Point>
  </Placemark>
  <Placemark>
	<ExtendedData><SchemaData schemaUrl="#core_arthropod_locations">
		<SimpleData name="site_code">T-11</SimpleData>
		<SimpleData name="location">35th avenue &amp; grovers</SimpleData>
		<SimpleData name="start_date">2002-07-15</SimpleData>
		<SimpleData name="num_traps">10</SimpleData>
		<SimpleData name="comments">Residential</SimpleData>
	</SchemaData></ExtendedData>
      <Point><coordinates>-112.133374753713994,33.648140029306198</coordinates></Point>
  </Placemark>
  <Placemark>
	<ExtendedData><SchemaData schemaUrl="#core_arthropod_locations">
		<SimpleData name="site_code">U-12</SimpleData>
		<SimpleData name="location">3rd avenue &amp; Coral Gables</SimpleData>
		<SimpleData name="start_date">2002-06-02</SimpleData>
		<SimpleData name="num_traps">10</SimpleData>
		<SimpleData name="comments">Residential</SimpleData>
	</SchemaData></ExtendedData>
      <Point><coordinates>-112.078296394668001,33.627242444854602</coordinates></Point>
  </Placemark>
  <Placemark>
	<ExtendedData><SchemaData schemaUrl="#core_arthropod_locations">
		<SimpleData name="location">off Blevins Rd., Mesa, behind rest stop and across wash</SimpleData>
		<SimpleData name="start_date">1998-04-23</SimpleData>
		<SimpleData name="end_date">2002-04-14</SimpleData>
		<SimpleData name="num_traps">21</SimpleData>
		<SimpleData name="trap_arrange">cross with central (C) trap and 5 traps at ea. of 4 arms (N1-5,S1-5,E1-5,W1-5)</SimpleData>
		<SimpleData name="comments">reduced to 10 traps, Mar. 1999 (W1-4,C,E1-5)</SimpleData>
	</SchemaData></ExtendedData>
      <Point><coordinates>-111.614795158340002,33.471298808666802</coordinates></Point>
  </Placemark>
  <Placemark>
	<ExtendedData><SchemaData schemaUrl="#core_arthropod_locations">
		<SimpleData name="site_code">V-14</SimpleData>
		<SimpleData name="location">12th St &amp; Northern</SimpleData>
		<SimpleData name="start_date">2002-06-03</SimpleData>
		<SimpleData name="num_traps">10</SimpleData>
		<SimpleData name="comments">Residential</SimpleData>
	</SchemaData></ExtendedData>
      <Point><coordinates>-112.054564844392004,33.552205384792003</coordinates></Point>
  </Placemark>
  <Placemark>
	<ExtendedData><SchemaData schemaUrl="#core_arthropod_locations">
		<SimpleData name="site_code">V-16</SimpleData>
		<SimpleData name="location">16th St. &amp; Oak</SimpleData>
		<SimpleData name="gps_date">2007-10-22</SimpleData>
		<SimpleData name="start_date">2002-06-03</SimpleData>
		<SimpleData name="num_traps">10</SimpleData>
		<SimpleData name="comments">Commercial</SimpleData>
	</SchemaData></ExtendedData>
      <Point><coordinates>-112.046875122543,33.4704568296901</coordinates></Point>
  </Placemark>
  <Placemark>
	<ExtendedData><SchemaData schemaUrl="#core_arthropod_locations">
		<SimpleData name="location">Baywood Ave., Mesa, behind helicopter landing pad</SimpleData>
		<SimpleData name="start_date">1998-06-03</SimpleData>
		<SimpleData name="end_date">1999-04-09</SimpleData>
		<SimpleData name="num_traps">19</SimpleData>
		<SimpleData name="trap_arrange">T-shaped design (N1-6, W1-5, S1-4, E1-4)</SimpleData>
		<SimpleData name="comments">Reduced to 10 traps, Mar. 1999 (N1-6,S1-4).  Changed location of traps at end of April 1999 from OLD to MVLH2 (effective June 1999).</SimpleData>
	</SchemaData></ExtendedData>
      <Point><coordinates>-111.687490064586996,33.410978349503601</coordinates></Point>
  </Placemark>
  <Placemark>
	<ExtendedData><SchemaData schemaUrl="#core_arthropod_locations">
		<SimpleData name="site_code">W-15</SimpleData>
		<SimpleData name="location">40th St. &amp; Mcdonald</SimpleData>
		<SimpleData name="start_date">2002-06-03</SimpleData>
		<SimpleData name="num_traps">10</SimpleData>
		<SimpleData name="comments">Residential</SimpleData>
	</SchemaData></ExtendedData>
      <Point><coordinates>-111.992469914085007,33.523850004679197</coordinates></Point>
  </Placemark>
  <Placemark>
	<ExtendedData><SchemaData schemaUrl="#core_arthropod_locations">
		<SimpleData name="site_code">W-17</SimpleData>
		<SimpleData name="location">36th &amp; Washington</SimpleData>
		<SimpleData name="gps_date">2007-10-29</SimpleData>
		<SimpleData name="start_date">2002-06-03</SimpleData>
		<SimpleData name="num_traps">10</SimpleData>
		<SimpleData name="comments">Commercial</SimpleData>
	</SchemaData></ExtendedData>
      <Point><coordinates>-112.000335467346005,33.444459945725598</coordinates></Point>
  </Placemark>
  <Placemark>
	<ExtendedData><SchemaData schemaUrl="#core_arthropod_locations">
		<SimpleData name="site_code">W-6</SimpleData>
		<SimpleData name="location">32nd St. &amp; Carefree Hwy.</SimpleData>
		<SimpleData name="gps_date">2007-10-23</SimpleData>
		<SimpleData name="start_date">2002-06-02</SimpleData>
		<SimpleData name="num_traps">10</SimpleData>
		<SimpleData name="comments">Desert</SimpleData>
	</SchemaData></ExtendedData>
      <Point><coordinates>-112.010594267946999,33.820425013035504</coordinates></Point>
  </Placemark>
  <Placemark>
	<ExtendedData><SchemaData schemaUrl="#core_arthropod_locations">
		<SimpleData name="site_code">Y-19</SimpleData>
		<SimpleData name="location">McClintock &amp; Baseline</SimpleData>
		<SimpleData name="start_date">2002-06-10</SimpleData>
		<SimpleData name="num_traps">10</SimpleData>
		<SimpleData name="comments">Residential</SimpleData>
	</SchemaData></ExtendedData>
      <Point><coordinates>-111.915146573637003,33.377294727448103</coordinates></Point>
  </Placemark>
</Folder>
</Document></kml>
